LEMUR-2-GREENBERG       
1 42837U 17042N   26068.46200528  .00019778  00000+0  72539-3 0  9997
2 42837  97.3781 249.8007 0009157   4.0119 356.1192 15.27971352473146
STARLINK-34017          
1 64339U 25124Y   26068.44828506  .00027070  00000+0  98934-3 0  9999
2 64339  43.0014 123.0579 0001797 275.6137  84.4509 15.27588431 41741
